[{"OBJECT_NAME":"STARLINK-35346","OBJECT_ID":"2025-243C","EPOCH":"2026-03-09T18:24:40.423392","MEAN_MOTION":15.30201451,"ECCENTRICITY":8.356e-5,"INCLINATION":53.1584,"RA_OF_ASC_NODE":245.0313,"ARG_OF_PERICENTER":90.5088,"MEAN_ANOMALY":269.6009,"EPHEMERIS_TYPE":0,"CLASSIFICATION_TYPE":"U","NORAD_CAT_ID":66179,"ELEMENT_SET_NO":999,"REV_AT_EPOCH":2066,"BSTAR":0.0010865219,"MEAN_MOTION_DOT":0.0003196,"MEAN_MOTION_DDOT":0},{"OBJECT_NAME":"CERISE","OBJECT_ID":"1995-033B","EPOCH":"2026-03-09T23:11:27.589056","MEAN_MOTION":15.32047731,"ECCENTRICITY":0.00057118,"INCLINATION":98.325,"RA_OF_ASC_NODE":273.5192,"ARG_OF_PERICENTER":211.8754,"MEAN_ANOMALY":148.214,"EPHEMERIS_TYPE":0,"CLASSIFICATION_TYPE":"U","NORAD_CAT_ID":23606,"ELEMENT_SET_NO":999,"REV_AT_EPOCH":66468,"BSTAR":0.00062940675,"MEAN_MOTION_DOT":0.00019422,"MEAN_MOTION_DDOT":0}]
